OBJECT_NAME,OBJECT_ID,EPOCH,MEAN_MOTION,ECCENTRICITY,INCLINATION,RA_OF_ASC_NODE,ARG_OF_PERICENTER,MEAN_ANOMALY,EPHEMERIS_TYPE,CLASSIFICATION_TYPE,NORAD_CAT_ID,ELEMENT_SET_NO,REV_AT_EPOCH,BSTAR,MEAN_MOTION_DOT,MEAN_MOTION_DDOT
ZHONGXING-2E,2021-071A,2026-07-13T01:56:55.461408,1.00271261,.0001145,0.0671,233.1627,274.4565,270.6427,0,U,49062,999,1829,0,-.293E-5,0
TJS-7,2021-077A,2026-07-13T04:26:13.159392,1.00269387,.0003038,0.2917,264.0834,107.9851,246.0425,0,U,49115,999,980,0,-.125E-5,0
CHINASAT 9B,2021-080A,2026-07-13T01:58:10.340832,1.00269476,.0002121,0.0280,86.8818,60.8791,274.1569,0,U,49125,999,1790,0,-.314E-5,0
SHIJIAN-21 (SJ-21),2021-094A,2026-07-12T16:42:24.807744,1.00279099,.0051707,5.1709,61.0218,168.9350,79.0642,0,U,49330,999,561,0,-.352E-5,0
SES-17,2021-095A,2026-07-12T20:02:07.956384,1.00268378,.0000756,0.0240,46.6489,72.0192,45.4760,0,U,49332,999,1811,0,-.273E-5,0
SYRACUSE 4A,2021-095B,2026-07-13T03:24:54.770976,1.00269741,.0001473,0.0271,54.0108,52.9431,280.8088,0,U,49333,999,1820,0,0,0
QZS-1R (MICHIBIKI-1R),2021-096A,2026-07-12T13:50:38.811840,1.00245962,.075501,37.5114,79.2075,272.2000,278.6576,0,U,49336,999,1726,0,-.3E-5,0
ZHONGXING-1D,2021-114A,2026-07-13T00:23:42.996768,1.00269449,.0000582,0.0481,231.5670,30.4210,165.0281,0,U,49505,999,1707,0,-.338E-5,0
STPSAT-6,2021-118A,2026-07-13T04:59:56.338944,1.00269860,.0000993,0.3856,85.1151,237.6399,291.5422,0,U,49817,999,1683,0,-.48E-6,0
EXPRESS AMU-7,2021-123A,2026-07-13T03:53:07.067904,1.00270529,.0000233,0.0312,282.5112,341.9683,229.8328,0,U,50001,999,1680,0,-.245E-5,0
EXPRESS AMU-3,2021-123B,2026-07-12T21:45:15.795648,1.00269447,.000001,0.0158,11.0533,134.8196,214.1271,0,U,50002,999,728,0,0,0
TIANLIAN 2-02,2021-124A,2026-07-13T04:00:36.349632,1.00270386,.0001578,0.8652,85.7156,162.3250,274.1238,0,U,50005,999,1688,0,-.18E-6,0
TURKSAT 5B,2021-126A,2026-07-12T23:58:37.900128,1.00271952,.0002509,0.0701,338.6004,12.8831,341.0561,0,U,50212,999,1655,0,.145E-5,0
INMARSAT 6-F1,2021-128A,2026-07-13T03:35:46.231296,1.00272393,.0000206,0.0152,331.5090,256.5120,200.7025,0,U,50319,999,1651,0,-.174E-5,0
SHIYAN-12 01 (SY-12 01),2021-129A,2026-07-12T17:07:13.567008,1.00049826,.00026,3.7378,79.5665,284.5398,222.5476,0,U,50321,999,1675,0,.147E-5,0
SHIYAN-12 02 (SY-12 02),2021-129B,2026-07-12T19:09:21.398976,1.00478416,.0003031,3.7371,79.5652,70.5376,176.5041,0,U,50322,999,1675,0,-.362E-5,0
TJS-9,2021-135A,2026-07-13T03:50:52.283040,1.00273218,.000225,0.0421,107.0842,321.2394,57.6691,0,U,50574,999,1669,0,-.301E-5,0
GOES 18,2022-021A,2026-07-13T00:50:10.460256,1.00273053,.0000603,0.0164,127.5086,67.6267,331.3316,0,U,51850,999,685,0,.95E-6,0
ZHONGXING-6D,2022-038A,2026-07-12T20:16:47.022816,1.00273271,.0000559,0.0309,242.6704,286.3576,190.9625,0,U,52255,999,1567,0,-.354E-5,0
NILESAT 301,2022-061A,2026-07-13T03:09:56.205792,1.00269204,.0003528,0.0467,350.9289,87.6601,252.9414,0,U,52817,999,1499,0,-.6E-6,0
CMS-02 (GSAT-24),2022-067A,2026-07-13T03:35:38.743008,1.00271644,.0000653,0.0183,97.3032,247.3991,83.2376,0,U,52903,999,1486,0,-.167E-5,0
MEASAT 3D,2022-067B,2026-07-13T03:38:01.016160,1.00271829,.0000622,0.0489,306.1613,66.6935,64.1875,0,U,52904,999,1491,0,-.244E-5,0
SES-22,2022-071A,2026-07-13T04:28:35.773824,1.00270598,.0000773,0.0160,359.7517,105.0438,114.3969,0,U,52933,999,778,0,.102E-5,0
WFOV (USA 332),2022-073A,2026-07-13T00:20:35.794752,1.00268298,.0001547,3.7745,78.2011,214.6305,122.5078,0,U,52940,999,1462,0,-.367E-5,0
TIANLIAN 2-03,2022-078A,2026-07-13T04:07:38.735040,1.00273523,.00009,0.7353,77.4602,4.3317,281.8022,0,U,53100,999,1480,0,.69E-6,0
SBIRS GEO-6 (USA 336),2022-092A,2026-07-13T00:26:12.757344,1.00270731,.0001619,3.2153,317.9085,153.1340,325.4156,0,U,53355,999,1449,0,-.289E-5,0
EUTELSAT KONNECT VHTS,2022-110A,2026-07-13T04:15:38.675808,1.00268751,.0002656,0.0586,98.3817,345.6511,273.6239,0,U,53765,999,709,0,.14E-6,0
ZHONGXING-1E,2022-112A,2026-07-13T05:29:38.804640,1.00272689,.0000935,0.0678,230.6788,51.1103,173.1186,0,U,53813,999,1411,0,-.152E-5,0
SES-20,2022-123A,2026-07-12T21:34:32.950272,1.00269346,.0001716,0.0182,65.5273,27.3100,58.4778,0,U,53960,999,1379,0,-.102E-5,0
SES-21,2022-123B,2026-07-12T14:36:00.647712,1.00274690,.0001309,0.0382,33.2221,82.4376,262.9264,0,U,53961,999,746,0,0,0
GALAXY 33 (G-33),2022-128A,2026-07-13T02:33:36.942048,1.00271419,.0001754,0.0123,15.1900,104.8375,76.3617,0,U,54026,999,1400,0,.77E-6,0
GALAXY 34 (G-34),2022-128B,2026-07-12T23:09:49.994208,1.00273632,.0001453,0.0243,20.8122,119.7956,8.7058,0,U,54027,999,1417,0,0,0
