ZHONGXING-2E            
1 49062U 21071A   26194.08119747 -.00000293  00000+0  00000+0 0  9994
2 49062   0.0671 233.1627 0001145 274.4565 270.6427  1.00271261 18293
TJS-7                   
1 49115U 21077A   26194.18487453 -.00000125  00000+0  00000+0 0  9996
2 49115   0.2917 264.0834 0003038 107.9851 246.0425  1.00269387  9809
CHINASAT 9B             
1 49125U 21080A   26194.08206413 -.00000314  00000+0  00000+0 0  9995
2 49125   0.0280  86.8818 0002121  60.8791 274.1569  1.00269476 17905
SHIJIAN-21 (SJ-21)      
1 49330U 21094A   26193.69612046 -.00000352  00000+0  00000+0 0  9999
2 49330   5.1709  61.0218 0051707 168.9350  79.0642  1.00279099  5610
SES-17                  
1 49332U 21095A   26193.83481431 -.00000273  00000+0  00000+0 0  9992
2 49332   0.0240  46.6489 0000756  72.0192  45.4760  1.00268378 18117
SYRACUSE 4A             
1 49333U 21095B   26194.14230059  .00000000  00000+0  00000+0 0  9993
2 49333   0.0271  54.0108 0001473  52.9431 280.8088  1.00269741 18206
QZS-1R (MICHIBIKI-1R)   
1 49336U 21096A   26193.57683810 -.00000300  00000+0  00000+0 0  9994
2 49336  37.5114  79.2075 0755010 272.2000 278.6576  1.00245962 17265
ZHONGXING-1D            
1 49505U 21114A   26194.01646987 -.00000338  00000+0  00000+0 0  9998
2 49505   0.0481 231.5670 0000582  30.4210 165.0281  1.00269449 17070
STPSAT-6                
1 49817U 21118A   26194.20829096 -.00000048  00000+0  00000+0 0  9991
2 49817   0.3856  85.1151 0000993 237.6399 291.5422  1.00269860 16839
EXPRESS AMU-7           
1 50001U 21123A   26194.16188736 -.00000245  00000+0  00000+0 0  9997
2 50001   0.0312 282.5112 0000233 341.9683 229.8328  1.00270529 16802
EXPRESS AMU-3           
1 50002U 21123B   26193.90643282  .00000000  00000+0  00000+0 0  9999
2 50002   0.0158  11.0533 0000010 134.8196 214.1271  1.00269447  7287
TIANLIAN 2-02           
1 50005U 21124A   26194.16708738 -.00000018  00000+0  00000+0 0  9990
2 50005   0.8652  85.7156 0001578 162.3250 274.1238  1.00270386 16882
TURKSAT 5B              
1 50212U 21126A   26193.99904977  .00000145  00000+0  00000+0 0  9995
2 50212   0.0701 338.6004 0002509  12.8831 341.0561  1.00271952 16557
INMARSAT 6-F1           
1 50319U 21128A   26194.14984064 -.00000174  00000+0  00000+0 0  9991
2 50319   0.0152 331.5090 0000206 256.5120 200.7025  1.00272393 16514
SHIYAN-12 01 (SY-12 01) 
1 50321U 21129A   26193.71335147  .00000147  00000+0  00000+0 0  9998
2 50321   3.7378  79.5665 0002600 284.5398 222.5476  1.00049826 16753
SHIYAN-12 02 (SY-12 02) 
1 50322U 21129B   26193.79816434 -.00000362  00000+0  00000+0 0  9990
2 50322   3.7371  79.5652 0003031  70.5376 176.5041  1.00478416 16758
TJS-9                   
1 50574U 21135A   26194.16032735 -.00000301  00000+0  00000+0 0  9995
2 50574   0.0421 107.0842 0002250 321.2394  57.6691  1.00273218 16695
GOES 18                 
1 51850U 22021A   26194.03484329  .00000095  00000+0  00000+0 0  9993
2 51850   0.0164 127.5086 0000603  67.6267 331.3316  1.00273053  6854
ZHONGXING-6D            
1 52255U 22038A   26193.84498869 -.00000354  00000+0  00000+0 0  9992
2 52255   0.0309 242.6704 0000559 286.3576 190.9625  1.00273271 15678
NILESAT 301             
1 52817U 22061A   26194.13190053 -.00000060  00000+0  00000+0 0  9993
2 52817   0.0467 350.9289 0003528  87.6601 252.9414  1.00269204 14998
CMS-02 (GSAT-24)        
1 52903U 22067A   26194.14975397 -.00000167  00000+0  00000+0 0  9996
2 52903   0.0183  97.3032 0000653 247.3991  83.2376  1.00271644 14869
MEASAT 3D               
1 52904U 22067B   26194.15140065 -.00000244  00000+0  00000+0 0  9990
2 52904   0.0489 306.1613 0000622  66.6935  64.1875  1.00271829 14914
SES-22                  
1 52933U 22071A   26194.18652516  .00000102  00000+0  00000+0 0  9991
2 52933   0.0160 359.7517 0000773 105.0438 114.3969  1.00270598  7783
WFOV (USA 332)          
1 52940U 22073A   26194.01430318 -.00000367  00000+0  00000+0 0  9991
2 52940   3.7745  78.2011 0001547 214.6305 122.5078  1.00268298 14629
TIANLIAN 2-03           
1 53100U 22078A   26194.17197610  .00000069  00000+0  00000+0 0  9995
2 53100   0.7353  77.4602 0000900   4.3317 281.8022  1.00273523 14801
SBIRS GEO-6 (USA 336)   
1 53355U 22092A   26194.01820321 -.00000289  00000+0  00000+0 0  9993
2 53355   3.2153 317.9085 0001619 153.1340 325.4156  1.00270731 14499
EUTELSAT KONNECT VHTS   
1 53765U 22110A   26194.17753097  .00000014  00000+0  00000+0 0  9996
2 53765   0.0586  98.3817 0002656 345.6511 273.6239  1.00268751  7095
ZHONGXING-1E            
1 53813U 22112A   26194.22892135 -.00000152  00000+0  00000+0 0  9999
2 53813   0.0678 230.6788 0000935  51.1103 173.1186  1.00272689 14114
SES-20                  
1 53960U 22123A   26193.89899248 -.00000102  00000+0  00000+0 0  9993
2 53960   0.0182  65.5273 0001716  27.3100  58.4778  1.00269346 13792
SES-21                  
1 53961U 22123B   26193.60834083  .00000000  00000+0  00000+0 0  9995
2 53961   0.0382  33.2221 0001309  82.4376 262.9264  1.00274690  7462
GALAXY 33 (G-33)        
1 54026U 22128A   26194.10667757  .00000077  00000+0  00000+0 0  9995
2 54026   0.0123  15.1900 0001754 104.8375  76.3617  1.00271419 14006
GALAXY 34 (G-34)        
1 54027U 22128B   26193.96516197  .00000000  00000+0  00000+0 0  9996
2 54027   0.0243  20.8122 0001453 119.7956   8.7058  1.00273632 14170
